[{"OBJECT_NAME":"STARLINK-30164","OBJECT_ID":"2023-113F","EPOCH":"2026-03-09T22:00:01.999584","MEAN_MOTION":15.24466179,"ECCENTRICITY":0.00018202,"INCLINATION":43.0036,"RA_OF_ASC_NODE":14.5924,"ARG_OF_PERICENTER":267.0791,"MEAN_ANOMALY":38.5191,"EPHEMERIS_TYPE":0,"CLASSIFICATION_TYPE":"U","NORAD_CAT_ID":57500,"ELEMENT_SET_NO":999,"REV_AT_EPOCH":578,"BSTAR":0.029239986,"MEAN_MOTION_DOT":0.00792027,"MEAN_MOTION_DDOT":0},{"OBJECT_NAME":"OBJECT B","OBJECT_ID":"2024-018B","EPOCH":"2026-03-09T23:37:58.932768","MEAN_MOTION":14.43067172,"ECCENTRICITY":0.04162119,"INCLINATION":58.6942,"RA_OF_ASC_NODE":207.6312,"ARG_OF_PERICENTER":352.1605,"MEAN_ANOMALY":7.3044,"EPHEMERIS_TYPE":0,"CLASSIFICATION_TYPE":"U","NORAD_CAT_ID":58850,"ELEMENT_SET_NO":999,"REV_AT_EPOCH":11107,"BSTAR":0.00029384903,"MEAN_MOTION_DOT":2.642e-5,"MEAN_MOTION_DDOT":0}]
